NORAD_CAT_ID,OBJECT_NAME,OBJECT_TYPE,EPOCH,MEAN_MOTION,ECCENTRICITY,INCLINATION,RA_OF_ASC_NODE,ARG_OF_PERICENTER,MEAN_ANOMALY,BSTAR,MEAN_MOTION_DOT,MEAN_MOTION_DDOT,TLE_LINE0,TLE_LINE1,TLE_LINE2,SEMIMAJOR_AXIS,PERIOD,APOGEE,PERIGEE,DECAYED
52576.0,STARLINK-3932,PAYLOAD,2024-03-09 12:20:56,15.08825794,0.0001108,53.2179,157.0031,95.601,264.5109,0.00022092,3.229e-05,0.0,0 STARLINK-3932,1 52576U 22051AS  24069.51454309  .00003229  00000-0  22092-3 0  9991,2 52576  53.2179 157.0031 0001108  95.6010 264.5109 15.08825794101426,6917.924,95.438,540.555,539.022,0.0
52576.0,STARLINK-3932,PAYLOAD,2024-03-09 15:31:42,15.08835218,0.0001662,53.2176,156.4081,105.0345,255.0831,0.00011577,1.555e-05,0.0,0 STARLINK-3932,1 52576U 22051AS  24069.64701896  .00001555  00000-0  11577-3 0  9997,2 52576  53.2176 156.4081 0001662 105.0345 255.0831 15.08835218101444,6917.895,95.438,540.91,538.61,0.0
52576.0,STARLINK-3932,PAYLOAD,2024-03-10 12:11:42,15.08849303,0.0001486,53.2168,152.5416,92.8153,267.3009,6.5434e-05,7.54e-06,0.0,0 STARLINK-3932,1 52576U 22051AS  24070.50813041  .00000754  00000-0  65434-4 0  9992,2 52576  53.2168 152.5416 0001486  92.8153 267.3009 15.08849303101575,6917.852,95.437,540.745,538.689,0.0
52576.0,STARLINK-3932,PAYLOAD,2024-03-11 12:02:30,15.08833183,0.0001355,53.2161,148.0825,80.2405,279.8741,1.4257e-05,-6.1e-07,0.0,0 STARLINK-3932,1 52576U 22051AS  24071.50174185 -.00000061  00000-0  14257-4 0  9991,2 52576  53.2161 148.0825 0001355  80.2405 279.8741 15.08833183101725,6917.901,95.438,540.704,538.829,0.0
52576.0,STARLINK-3932,PAYLOAD,2024-03-12 21:25:35,15.08843261,0.0001359,53.2169,141.8397,86.6192,273.4956,3.3166e-05,2.4e-06,0.0,0 STARLINK-3932,1 52576U 22051AS  24072.89277770  .00000240  00000-0  33166-4 0  9996,2 52576  53.2169 141.8397 0001359  86.6192 273.4956 15.08843261101866,6917.87,95.437,540.676,538.795,0.0
52576.0,STARLINK-3932,PAYLOAD,2024-03-13 13:19:28,15.08832173,0.0001601,53.2177,138.8676,94.0474,266.0701,8.4751e-05,1.061e-05,0.0,0 STARLINK-3932,1 52576U 22051AS  24073.55518788  .00001061  00000-0  84751-4 0  9995,2 52576  53.2177 138.8676 0001601  94.0474 266.0701 15.08832173102033,6917.904,95.438,540.877,538.662,0.0
52576.0,STARLINK-3932,PAYLOAD,2024-03-13 21:16:23,15.0884312,0.0001537,53.2175,137.3802,85.8573,274.2595,0.00015694,2.211e-05,0.0,0 STARLINK-3932,1 52576U 22051AS  24073.88637985  .00002211  00000-0  15694-3 0  9999,2 52576  53.2175 137.3802 0001537  85.8573 274.2595 15.08843120102083,6917.871,95.437,540.799,538.673,0.0
52576.0,STARLINK-3932,PAYLOAD,2024-03-14 03:37:55,15.08841903,0.0001599,53.2177,136.1916,86.4054,273.7121,0.00011937,1.612e-05,0.0,0 STARLINK-3932,1 52576U 22051AS  24074.15134197  .00001612  00000-0  11937-3 0  9997,2 52576  53.2177 136.1916 0001599  86.4054 273.7121 15.08841903102050,6917.875,95.437,540.846,538.633,0.0
52576.0,STARLINK-3932,PAYLOAD,2024-03-14 13:10:14,15.08843347,0.0001508,53.2167,134.4064,82.5048,277.6115,0.00011819,1.594e-05,0.0,0 STARLINK-3932,1 52576U 22051AS  24074.54878120  .00001594  00000-0  11819-3 0  9999,2 52576  53.2167 134.4064 0001508  82.5048 277.6115 15.08843347102111,6917.87,95.437,540.778,538.692,0.0
52576.0,STARLINK-3932,PAYLOAD,2024-03-15 13:01:01,15.08842493,0.0001445,53.2168,129.9456,88.3317,271.784,6.0476e-05,6.75e-06,0.0,0 STARLINK-3932,1 52576U 22051AS  24075.54238250  .00000675  00000-0  60476-4 0  9997,2 52576  53.2168 129.9456 0001445  88.3317 271.7840 15.08842493102334,6917.873,95.437,540.737,538.738,0.0
52576.0,STARLINK-3932,PAYLOAD,2024-03-15 22:33:20,15.08848206,0.0001538,53.2167,128.1627,80.1971,279.9194,3.4454e-05,2.6e-06,0.0,0 STARLINK-3932,1 52576U 22051AS  24075.93981857  .00000260  00000-0  34454-4 0  9995,2 52576  53.2167 128.1627 0001538  80.1971 279.9194 15.08848206102322,6917.855,95.437,540.784,538.656,0.0
52576.0,STARLINK-3932,PAYLOAD,2024-03-16 09:41:02,15.08843434,0.0001346,53.216,126.0787,91.586,268.5286,-1.4872e-05,-5.25e-06,0.0,0 STARLINK-3932,1 52576U 22051AS  24076.40350185 -.00000525  00000-0 -14872-4 0  9990,2 52576  53.2160 126.0787 0001346  91.5860 268.5286 15.08843434102390,6917.87,95.437,540.666,538.804,0.0
52576.0,STARLINK-3932,PAYLOAD,2024-03-17 03:10:16,15.08841817,0.0001438,53.2164,122.8067,106.0506,254.0644,4.0845e-05,3.62e-06,0.0,0 STARLINK-3932,1 52576U 22051AS  24077.13213989  .00000362  00000-0  40845-4 0  9997,2 52576  53.2164 122.8067 0001438 106.0506 254.0644 15.08841817102571,6917.875,95.437,540.735,538.745,0.0
52576.0,STARLINK-3932,PAYLOAD,2024-03-17 09:31:49,15.08840855,0.0001379,53.216,121.6182,94.1328,265.9822,4.3736e-05,4.08e-06,0.0,0 STARLINK-3932,1 52576U 22051AS  24077.39710083  .00000408  00000-0  43736-4 0  9995,2 52576  53.2160 121.6182 0001379  94.1328 265.9822 15.08840855102542,6917.878,95.438,540.697,538.789,0.0
52576.0,STARLINK-3932,PAYLOAD,2024-03-18 03:01:04,15.08832417,0.000148,53.2161,118.3469,100.4877,259.6282,5.0211e-05,5.11e-06,0.0,0 STARLINK-3932,1 52576U 22051AS  24078.12574615  .00000511  00000-0  50211-4 0  9997,2 52576  53.2161 118.3469 0001480 100.4877 259.6282 15.08832417102722,6917.904,95.438,540.792,538.745,0.0
52576.0,STARLINK-3932,PAYLOAD,2024-03-18 09:22:37,15.08828526,0.0001445,53.2159,117.1564,103.937,256.1783,9.9718e-06,-1.29e-06,0.0,0 STARLINK-3932,1 52576U 22051AS  24078.39071070 -.00000129  00000-0  99718-5 0  9995,2 52576  53.2159 117.1564 0001445 103.9370 256.1783 15.08828526102699,6917.915,95.438,540.78,538.781,0.0
52576.0,STARLINK-3932,PAYLOAD,2024-03-19 10:48:46,15.08846184,0.0001589,53.2173,112.4002,104.9037,255.2131,0.00011647,1.566e-05,0.0,0 STARLINK-3932,1 52576U 22051AS  24079.45054006  .00001566  00000-0  11647-3 0  9991,2 52576  53.2173 112.4002 0001589 104.9037 255.2131 15.08846184102923,6917.861,95.437,540.826,538.627,0.0
52576.0,STARLINK-3932,PAYLOAD,2024-03-20 10:39:34,15.0883521,0.0001615,53.2176,107.9419,103.6512,256.466,0.00011485,1.54e-05,0.0,0 STARLINK-3932,1 52576U 22051AS  24080.44414884  .00001540  00000-0  11485-3 0  9998,2 52576  53.2176 107.9419 0001615 103.6512 256.4660 15.08835210103076,6917.895,95.438,540.877,538.643,0.0
52576.0,STARLINK-3932,PAYLOAD,2024-03-21 10:30:22,15.08836816,0.0001631,53.2172,103.4806,103.867,256.2504,-3.5183e-05,-8.48e-06,0.0,0 STARLINK-3932,1 52576U 22051AS  24081.43775525 -.00000848  00000-0 -35183-4 0  9994,2 52576  53.2172 103.4806 0001631 103.8670 256.2504 15.08836816103155,6917.89,95.438,540.883,538.627,0.0
52576.0,STARLINK-3932,PAYLOAD,2024-03-21 18:27:17,15.08844601,0.0001576,53.2175,101.9911,90.0037,270.1136,2.9827e-05,1.87e-06,0.0,0 STARLINK-3932,1 52576U 22051AS  24081.76894903  .00000187  00000-0  29827-4 0  9994,2 52576  53.2175 101.9911 0001576  90.0037 270.1136 15.08844601103270,6917.866,95.437,540.822,538.641,0.0
52576.0,STARLINK-3932,PAYLOAD,2024-03-22 08:45:44,15.08847339,0.0001587,53.2171,99.3151,88.4932,271.6242,0.00016435,2.329e-05,0.0,0 STARLINK-3932,1 52576U 22051AS  24082.36510284  .00002329  00000-0  16435-3 0  9998,2 52576  53.2171  99.3151 0001587  88.4932 271.6242 15.08847339103296,6917.858,95.437,540.821,538.625,0.0
52576.0,STARLINK-3932,PAYLOAD,2024-03-23 05:25:46,15.08832555,0.0001489,53.2173,95.444,90.1199,269.9964,0.00018779,2.701e-05,0.0,0 STARLINK-3932,1 52576U 22051AS  24083.22623120  .00002701  00000-0  18779-3 0  9995,2 52576  53.2173  95.4440 0001489  90.1199 269.9964 15.08832555103499,6917.903,95.438,540.798,538.738,0.0
52576.0,STARLINK-3932,PAYLOAD,2024-03-23 18:08:51,15.08838961,0.000142,53.2173,93.0661,102.2179,257.8972,2.7699e-05,1.53e-06,0.0,0 STARLINK-3932,1 52576U 22051AS  24083.75615208  .00000153  00000-0  27699-4 0  9992,2 52576  53.2173  93.0661 0001420 102.2179 257.8972 15.08838961103500,6917.884,95.438,540.731,538.766,0.0
52576.0,STARLINK-3932,PAYLOAD,2024-03-24 10:02:41,15.08856114,0.0001667,53.2181,90.0928,105.7389,254.3787,5.2297e-05,5.45e-06,0.0,0 STARLINK-3932,1 52576U 22051AS  24084.41853930  .00000545  00000-0  52297-4 0  9999,2 52576  53.2181  90.0928 0001667 105.7389 254.3787 15.08856114103670,6917.831,95.437,540.849,538.543,0.0
52576.0,STARLINK-3932,PAYLOAD,2024-03-25 05:07:20,15.08831211,0.000168,53.2171,86.5259,109.283,250.8344,1.8841e-05,1.2e-07,0.0,0 STARLINK-3932,1 52576U 22051AS  24085.21343370  .00000012  00000-0  18841-4 0  9996,2 52576  53.2171  86.5259 0001680 109.2830 250.8344 15.08831211103795,6917.907,95.438,540.934,538.61,0.0
52576.0,STARLINK-3932,PAYLOAD,2024-03-25 09:53:30,15.08836868,0.0001624,53.2173,85.6366,93.3769,266.7408,0.00011212,1.497e-05,0.0,0 STARLINK-3932,1 52576U 22051AS  24085.41215308  .00001497  00000-0  11212-3 0  9999,2 52576  53.2173  85.6366 0001624  93.3769 266.7408 15.08836868103754,6917.89,95.438,540.878,538.631,0.0
52576.0,STARLINK-3932,PAYLOAD,2024-03-26 04:58:06,15.08867538,0.0001427,53.217,82.0678,93.4505,266.665,0.00069613,0.00010817,0.0,0 STARLINK-3932,1 52576U 22051AS  24086.20701954  .00010817  00000-0  69613-3 0  9998,2 52576  53.2170  82.0678 0001427  93.4505 266.6650 15.08867538103945,6917.796,95.436,540.648,538.674,0.0
52576.0,STARLINK-3932,PAYLOAD,2024-03-26 09:44:16,15.08827752,0.0001639,53.2158,81.174,91.4901,268.6279,-0.00035684,-5.961e-05,0.0,0 STARLINK-3932,1 52576U 22051AS  24086.40574550 -.00005961  00000-0 -35684-3 0  9997,2 52576  53.2158  81.1740 0001639  91.4901 268.6279 15.08827752103970,6917.918,95.438,540.917,538.649,0.0
52576.0,STARLINK-3932,PAYLOAD,2024-03-26 16:05:49,15.08833599,0.0001451,53.217,79.9831,89.8019,270.314,-4.667e-05,-1.03e-05,0.0,0 STARLINK-3932,1 52576U 22051AS  24086.67070932 -.00001030  00000-0 -46670-4 0  9992,2 52576  53.2170  79.9831 0001451  89.8019 270.3140 15.08833599103943,6917.9,95.438,540.769,538.761,0.0
52576.0,STARLINK-3932,PAYLOAD,2024-03-27 04:48:54,15.08859372,0.0001515,53.2169,77.6075,92.3401,267.7765,0.001087,0.00017063,0.0,0 STARLINK-3932,1 52576U 22051AS  24087.20062606  .00017063  00000-0  10870-2 0  9993,2 52576  53.2169  77.6075 0001515  92.3401 267.7765 15.08859372104098,6917.821,95.436,540.734,538.638,0.0
